{"type": "FeatureCollection", "features": [ {"type": "Feature", "properties": {"norad_id": 41469, "name": "IRNSS-1G", "group": "gnss", "lat": 0.7759827551472325, "lon": 110.92395735189346, "alt_km": 35776.16258472486, "timestamp": "2025-12-20T16:47:36.528992+00:00", "meta": {"OBJECT_NAME": "IRNSS-1G", "OBJECT_ID": "2016-027A", "EPOCH": "2025-12-20T06:59:51.926208", "MEAN_MOTION": 1.00276461, "ECCENTRICITY": 0.0002602, "INCLINATION": 4.7528, "RA_OF_ASC_NODE": 101.9029, "ARG_OF_PERICENTER": 329.9579, "MEAN_ANOMALY": 251.7338, "EPHEMERIS_TYPE": 0, "CLASSIFICATION_TYPE": "U", "NORAD_CAT_ID": 41469, "ELEMENT_SET_NO": 999, "REV_AT_EPOCH": 3538, "BSTAR": 0, "MEAN_MOTION_DOT": -3.14e-06, "MEAN_MOTION_DDOT": 0}, "tle": {"line1": "1 41469U 16027A   25354.29157322 -.00000314  00000+0  00000+0 0  9997", "line2": "2 41469   4.7528 101.9029 0002602 329.9579 251.7338  1.00276461 35383"}}, "geometry": {"type": "Point", "coordinates": [110.92395735189346, 0.7759827551472325]}}, {"type": "Feature", "properties": {"norad_id": 41549, "name": "GSAT0211 (GALILEO 14)", "group": "gnss", "lat": 33.31305341160432, "lon": 19.382131407495965, "alt_km": 23224.46569658152, "timestamp": "2025-12-20T16:47:36.529003+00:00", "meta": {"OBJECT_NAME": "GSAT0211 (GALILEO 14)", "OBJECT_ID": "2016-030A", "EPOCH": "2025-12-14T00:32:28.498848", "MEAN_MOTION": 1.70473201, "ECCENTRICITY": 0.000407, "INCLINATION": 55.1518, "RA_OF_ASC_NODE": 226.7881, "ARG_OF_PERICENTER": 16.5595, "MEAN_ANOMALY": 343.5367, "EPHEMERIS_TYPE": 0, "CLASSIFICATION_TYPE": "U", "NORAD_CAT_ID": 41549, "ELEMENT_SET_NO": 999, "REV_AT_EPOCH": 5951, "BSTAR": 0, "MEAN_MOTION_DOT": 2.8e-07, "MEAN_MOTION_DDOT": 0}, "tle": {"line1": "1 41549U 16030A   25348.02255207  .00000028  00000+0  00000+0 0  9996", "line2": "2 41549  55.1518 226.7881 0004070  16.5595 343.5367  1.70473201 59512"}}, "geometry": {"type": "Point", "coordinates": [19.382131407495965, 33.31305341160432]}}, {"type": "Feature", "properties": {"norad_id": 41550, "name": "GSAT0210 (GALILEO 13)", "group": "gnss", "lat": -16.351751916712423, "lon": -145.17279069303459, "alt_km": 23225.42571887986, "timestamp": "2025-12-20T16:47:36.529037+00:00", "meta": {"OBJECT_NAME": "GSAT0210 (GALILEO 13)", "OBJECT_ID": "2016-030B", "EPOCH": "2025-12-18T23:20:38.714784", "MEAN_MOTION": 1.70473668, "ECCENTRICITY": 7.917e-05, "INCLINATION": 55.1496, "RA_OF_ASC_NODE": 226.6499, "ARG_OF_PERICENTER": 227.6007, "MEAN_ANOMALY": 132.5002, "EPHEMERIS_TYPE": 0, "CLASSIFICATION_TYPE": "U", "NORAD_CAT_ID": 41550, "ELEMENT_SET_NO": 999, "REV_AT_EPOCH": 5959, "BSTAR": 0, "MEAN_MOTION_DOT": 6.5e-07, "MEAN_MOTION_DDOT": 0}, "tle": {"line1": "1 41550U 16030B   25352.97267031  .00000065  00000+0  00000+0 0  9996", "line2": "2 41550  55.1496 226.6499 0000791 227.6007 132.5002  1.70473668 59599"}}, "geometry": {"type": "Point", "coordinates": [-145.17279069303459, -16.351751916712423]}}, {"type": "Feature", "properties": {"norad_id": 41586, "name": "BEIDOU-2 G7 (C03)", "group": "gnss", "lat": 0.7508179329649003, "lon": 91.88990894148284, "alt_km": 35765.738878259195, "timestamp": "2025-12-20T16:47:36.529066+00:00", "meta": {"OBJECT_NAME": "BEIDOU-2 G7 (C03)", "OBJECT_ID": "2016-037A", "EPOCH": "2025-12-19T15:57:04.317984", "MEAN_MOTION": 1.00271972, "ECCENTRICITY": 0.0005143, "INCLINATION": 1.7733, "RA_OF_ASC_NODE": 67.8469, "ARG_OF_PERICENTER": 2.9481, "MEAN_ANOMALY": 7.4377, "EPHEMERIS_TYPE": 0, "CLASSIFICATION_TYPE": "U", "NORAD_CAT_ID": 41586, "ELEMENT_SET_NO": 999, "REV_AT_EPOCH": 509, "BSTAR": 0, "MEAN_MOTION_DOT": -3.3e-06, "MEAN_MOTION_DDOT": 0}, "tle": {"line1": "1 41586U 16037A   25353.66463331 -.00000330  00000+0  00000+0 0  9996", "line2": "2 41586   1.7733  67.8469 0005143   2.9481   7.4377  1.00271972  5095"}}, "geometry": {"type": "Point", "coordinates": [91.88990894148284, 0.7508179329649003]}}, {"type": "Feature", "properties": {"norad_id": 41589, "name": "EUTELSAT 117 WEST B (WAAS/PRN 131)", "group": "gnss", "lat": 0.009045645056053805, "lon": -135.5568134163143, "alt_km": 35783.0839649324, "timestamp": "2025-12-20T16:47:36.529089+00:00", "meta": {"OBJECT_NAME": "EUTELSAT 117 WEST B (WAAS/PRN 131)", "OBJECT_ID": "2016-038B", "EPOCH": "2025-12-20T10:15:38.712096", "MEAN_MOTION": 1.0027683, "ECCENTRICITY": 6.12e-05, "INCLINATION": 0.0138, "RA_OF_ASC_NODE": 152.9607, "ARG_OF_PERICENTER": 124.2056, "MEAN_ANOMALY": 209.0277, "EPHEMERIS_TYPE": 0, "CLASSIFICATION_TYPE": "U", "NORAD_CAT_ID": 41589, "ELEMENT_SET_NO": 999, "REV_AT_EPOCH": 3487, "BSTAR": 0, "MEAN_MOTION_DOT": 1.1e-07, "MEAN_MOTION_DDOT": 0}, "tle": {"line1": "1 41589U 16038B   25354.42753139  .00000011  00000+0  00000+0 0  9998", "line2": "2 41589   0.0138 152.9607 0000612 124.2056 209.0277  1.00276830 34876"}}, "geometry": {"type": "Point", "coordinates": [-135.5568134163143, 0.009045645056053805]}}, {"type": "Feature", "properties": {"norad_id": 41859, "name": "GSAT0207 (GALILEO 15)", "group": "gnss", "lat": 8.859056851376472, "lon": -80.14693093247593, "alt_km": 23227.31010354556, "timestamp": "2025-12-20T16:47:36.529118+00:00", "meta": {"OBJECT_NAME": "GSAT0207 (GALILEO 15)", "OBJECT_ID": "2016-069A", "EPOCH": "2025-12-20T10:10:36.025248", "MEAN_MOTION": 1.7047449, "ECCENTRICITY": 0.0002389, "INCLINATION": 55.3864, "RA_OF_ASC_NODE": 106.0375, "ARG_OF_PERICENTER": 318.3578, "MEAN_ANOMALY": 41.5905, "EPHEMERIS_TYPE": 0, "CLASSIFICATION_TYPE": "U", "NORAD_CAT_ID": 41859, "ELEMENT_SET_NO": 999, "REV_AT_EPOCH": 5635, "BSTAR": 0, "MEAN_MOTION_DOT": -2e-08, "MEAN_MOTION_DDOT": 0}, "tle": {"line1": "1 41859U 16069A   25354.42402807 -.00000002  00000+0  00000+0 0  9996", "line2": "2 41859  55.3864 106.0375 0002389 318.3578  41.5905  1.70474490 56358"}}, "geometry": {"type": "Point", "coordinates": [-80.14693093247593, 8.859056851376472]}}, {"type": "Feature", "properties": {"norad_id": 41860, "name": "GSAT0212 (GALILEO 16)", "group": "gnss", "lat": -53.91623867578652, "lon": -2.818935240848649, "alt_km": 23230.966102319333, "timestamp": "2025-12-20T16:47:36.529141+00:00", "meta": {"OBJECT_NAME": "GSAT0212 (GALILEO 16)", "OBJECT_ID": "2016-069B", "EPOCH": "2025-12-20T06:39:51.316128", "MEAN_MOTION": 1.7047472, "ECCENTRICITY": 0.0002058, "INCLINATION": 55.384, "RA_OF_ASC_NODE": 106.0369, "ARG_OF_PERICENTER": 19.0026, "MEAN_ANOMALY": 340.9707, "EPHEMERIS_TYPE": 0, "CLASSIFICATION_TYPE": "U", "NORAD_CAT_ID": 41860, "ELEMENT_SET_NO": 999, "REV_AT_EPOCH": 5660, "BSTAR": 0, "MEAN_MOTION_DOT": -3e-08, "MEAN_MOTION_DDOT": 0}, "tle": {"line1": "1 41860U 16069B   25354.27767727 -.00000003  00000+0  00000+0 0  9997", "line2": "2 41860  55.3840 106.0369 0002058  19.0026 340.9707  1.70474720 56603"}}, "geometry": {"type": "Point", "coordinates": [-2.818935240848649, -53.91623867578652]}}, {"type": "Feature", "properties": {"norad_id": 41861, "name": "GSAT0213 (GALILEO 17)", "group": "gnss", "lat": 26.985536096587033, "lon": 126.58693570703464, "alt_km": 23221.5633025336, "timestamp": "2025-12-20T16:47:36.529161+00:00", "meta": {"OBJECT_NAME": "GSAT0213 (GALILEO 17)", "OBJECT_ID": "2016-069C", "EPOCH": "2025-12-17T17:05:43.699776", "MEAN_MOTION": 1.70474994, "ECCENTRICITY": 0.000259, "INCLINATION": 55.385, "RA_OF_ASC_NODE": 106.1156, "ARG_OF_PERICENTER": 282.1972, "MEAN_ANOMALY": 77.7328, "EPHEMERIS_TYPE": 0, "CLASSIFICATION_TYPE": "U", "NORAD_CAT_ID": 41861, "ELEMENT_SET_NO": 999, "REV_AT_EPOCH": 5642, "BSTAR": 0, "MEAN_MOTION_DOT": -9e-08, "MEAN_MOTION_DDOT": 0}, "tle": {"line1": "1 41861U 16069C   25351.71231134 -.00000009  00000+0  00000+0 0  9998", "line2": "2 41861  55.3850 106.1156 0002590 282.1972  77.7328  1.70474994 56421"}}, "geometry": {"type": "Point", "coordinates": [126.58693570703464, 26.985536096587033]}}, {"type": "Feature", "properties": {"norad_id": 41862, "name": "GSAT0214 (GALILEO 18)", "group": "gnss", "lat": -43.13819568316888, "lon": 65.75650712945746, "alt_km": 23222.710767011824, "timestamp": "2025-12-20T16:47:36.529178+00:00", "meta": {"OBJECT_NAME": "GSAT0214 (GALILEO 18)", "OBJECT_ID": "2016-069D", "EPOCH": "2025-12-17T20:35:58.649280", "MEAN_MOTION": 1.70474854, "ECCENTRICITY": 0.00015422, "INCLINATION": 55.383, "RA_OF_ASC_NODE": 106.1044, "ARG_OF_PERICENTER": 289.1766, "MEAN_ANOMALY": 70.7658, "EPHEMERIS_TYPE": 0, "CLASSIFICATION_TYPE": "U", "NORAD_CAT_ID": 41862, "ELEMENT_SET_NO": 999, "REV_AT_EPOCH": 5655, "BSTAR": 0, "MEAN_MOTION_DOT": -9e-08, "MEAN_MOTION_DDOT": 0}, "tle": {"line1": "1 41862U 16069D   25351.85831770 -.00000009  00000+0  00000+0 0  9996", "line2": "2 41862  55.3830 106.1044 0001542 289.1766  70.7658  1.70474854 56558"}}, "geometry": {"type": "Point", "coordinates": [65.75650712945746, -43.13819568316888]}}, {"type": "Feature", "properties": {"norad_id": 42709, "name": "SES-15 (WAAS/PRN 133)", "group": "gnss", "lat": -0.03312211567712589, "lon": -147.7087121797558, "alt_km": 35781.381848514444, "timestamp": "2025-12-20T16:47:36.529196+00:00", "meta": {"OBJECT_NAME": "SES-15 (WAAS/PRN 133)", "OBJECT_ID": "2017-026A", "EPOCH": "2025-12-20T09:17:38.654880", "MEAN_MOTION": 1.00278699, "ECCENTRICITY": 6.52e-05, "INCLINATION": 0.0189, "RA_OF_ASC_NODE": 335.9976, "ARG_OF_PERICENTER": 236.0015, "MEAN_ANOMALY": 247.4947, "EPHEMERIS_TYPE": 0, "CLASSIFICATION_TYPE": "U", "NORAD_CAT_ID": 42709, "ELEMENT_SET_NO": 999, "REV_AT_EPOCH": 564, "BSTAR": 0, "MEAN_MOTION_DOT": 8.3e-07, "MEAN_MOTION_DDOT": 0}, "tle": {"line1": "1 42709U 17026A   25354.38725295  .00000083  00000+0  00000+0 0  9997", "line2": "2 42709   0.0189 335.9976 0000652 236.0015 247.4947  1.00278699  5648"}}, "geometry": {"type": "Point", "coordinates": [-147.7087121797558, -0.03312211567712589]}}]}